CCSDS_OMM_VERS = 2.0
CREATION_DATE  = 
ORIGINATOR     = 

OBJECT_NAME    = SZ-21 MODULE
OBJECT_ID      = 2025-246C
CENTER_NAME    = EARTH
REF_FRAME      = TEME
TIME_SYSTEM    = UTC
MEAN_ELEMENT_THEORY = SGP/SGP4

EPOCH          = 2025-11-22T21:47:18.461184
MEAN_MOTION    = 15.61157645
ECCENTRICITY   = .0004574
INCLINATION    = 41.4750
RA_OF_ASC_NODE = 136.9007
ARG_OF_PERICENTER = 124.5116
MEAN_ANOMALY   = 235.6155

EPHEMERIS_TYPE = 0
CLASSIFICATION_TYPE = U
NORAD_CAT_ID   = 66515
ELEMENT_SET_NO = 999
REV_AT_EPOCH   = 134
BSTAR          = .29174E-3
MEAN_MOTION_DOT = .25118E-3
MEAN_MOTION_DDOT = 0

