SZ-21 MODULE            
1 66515U 25246C   25326.90785256  .00025118  00000+0  29174-3 0  9994
2 66515  41.4750 136.9007 0004574 124.5116 235.6155 15.61157645  1348
